ONEWEB-0228             
1 48780U 21045P   23241.63498426 -.00000025  00000+0 -10166-3 0  9998
2 48780  87.8963 102.8057 0001796  88.0799 272.0537 13.15547416109886
